<!DOCTYPE HTML PUBLIC "-//W3C//DTD HTML 4.0//EN">
<HTML>
<HEAD>
   <TITLE> Pseudo-MPEC for C4668V1 </TITLE>
   <META http-equiv=Content-Type content="text/html; charset=utf-8">
   <style type="text/css">
   .neocp {color:black; background-color:black; text-decoration:blink;}
   .whtext {color:white;}
   </style>
</HEAD>
<BODY>

<P><b>  "Pseudo-MPEC" for C4668V1 </b></p>

<p><i> Created 2026 Apr 10  8:34:59 UT using <a href="https://www.projectpluto.com/find_orb.htm">Find_Orb</a></i></p>
<p><i> <a href="https://www.projectpluto.com/mpec_xpl.htm"> Click here for an
   explanation of pseudo-MPECs </a> </i> </p>

<ul>
<li> <a href="#ast"> Astrometry </a> </li>
<li> <a href="#stations"> Observing stations </a> </li>
<li> <a href="#elements"> Orbital elements </a> </li>
<li> <a href="#residuals"> Residuals in arcseconds </a> </li>
<li> <a href="#eph"> Ephemeris </a> </li>
</ul>
<p>
<input type = "button" value = "Orbit Simulator View" onclick = "window.open('http://orbitsimulator.com/gravitySimulatorCloud/yr/gsim2023.html?sv,1,C4668V1,2461140.50,-141113180248.117218,-50382398581.120895,109968313.309602,8468.712018,-30026.858237,-682.666147,0,0,00FF00,90,65,,16000,0,12,1,0,27.064827,0.150000')">
</p>
<pre> <a name="ast"></a>
<a href="https://www.projectpluto.com/mpec_xpl.htm#astrometry"> <b>Astrometry:</b> </a>
<a name="o001"></a><a href="#r001">     C4668V1</a> 1C2026 04 10.19433707 48 28.404+38 40 35.83         16.43GV     <a href="#stn_703">703</a>
<a name="o002"></a><a href="#r002">     C4668V1</a> 1C2026 04 10.19660507 48 43.643+38 38 57.08         16.39GV     <a href="#stn_703">703</a>
<a name="o003"></a><a href="#r003">     C4668V1</a> 1C2026 04 10.19887507 48 59.100+38 37 17.20               V     <a href="#stn_703">703</a>
<a name="o004"></a><a href="#r004">     C4668V1</a> 1C2026 04 10.24416207 54 15.304+38 02 32.14         15.77GV     <a href="#stn_I52">I52</a>
<a name="o005"></a><a href="#r005">     C4668V1</a> 1C2026 04 10.24498207 54 20.970+38 01 54.23         16.53GV     <a href="#stn_I52">I52</a>
<a name="o006"></a><a href="#r006">     C4668V1</a> 1C2026 04 10.24907507 54 51.253+37 58 31.26         17.07GV     <a href="#stn_I52">I52</a>
<a name="o007"></a><a href="#r007">     C4668V1</a> 1C2026 04 10.24989007 54 56.902+37 57 52.92         15.64GV     <a href="#stn_I52">I52</a>
<a name="o008"></a><a href="#r008">     C4668V1</a> 1C2026 04 10.25152107 55 09.196+37 56 30.66         16.95GV     <a href="#stn_I52">I52</a>
<a name="stations"></a>
<a href="https://www.projectpluto.com/mpec_xpl.htm#stns"><b>Station data:
</b></a><a name="stn_703"></a>(703) <a href="http://www.lpl.arizona.edu/css/">Catalina Sky Survey</a>  (<a title="Click for map" href="http://maps.google.com/maps?q=32.41703,+-110.73264">N32.417029 W110.732640</a>)  US/Arizona.  Observer P.
   I. Catalina. Measurers T. Beuden, V. F. Carvajal, D. Fay, J. B. Fazekas,
   D. C. <a href="https://ssd.jpl.nasa.gov/tools/sbdb_lookup.html#/?sstr=22963&amp;view=OPD">Fuls</a>, A. R. <a href="https://ssd.jpl.nasa.gov/tools/sbdb_lookup.html#/?sstr=14220&amp;view=OPD">Gibbs</a>, A. D. <a href="https://ssd.jpl.nasa.gov/tools/sbdb_lookup.html#/?sstr=18871&amp;view=OPD">Grauer</a>, H. <a href="https://www.lpl.arizona.edu/research-scientists/hannes-gr%C3%B6ller">Gr&ouml;ller</a>, J. K. Hogan, R. A.
   <a href="https://ssd.jpl.nasa.gov/tools/sbdb_lookup.html#/?sstr=7392&amp;view=OPD">Kowalski</a>, S. M. <a href="https://ssd.jpl.nasa.gov/tools/sbdb_lookup.html#/?sstr=3690&amp;view=OPD">Larson</a>, G. J. <a href="https://catalina.lpl.arizona.edu/about/staff/greg-leonard">Leonard</a>, D. <a href="http://rankinstudio.com/">Rankin</a>, R. L. <a href="https://arxiv.org/find/all/1/all:+seaman_r/0/1/0/all/0/1">Seaman</a>, F. C.
   <a href="https://ssd.jpl.nasa.gov/tools/sbdb_lookup.html#/?sstr=17280&amp;view=OPD">Shelly</a>, K. W. <a href='http://www.skaw.sk/interview-with-kacper-wierzchos.html'>Wierzcho&#347;</a>. 0.68 m Schmidt + 10K CCD.
<a name="stn_I52"></a>(I52) Steward Observatory, Mt.&#32;Lemmon Station  (<a title="Click for map" href="http://maps.google.com/maps?q=32.44257,+-110.78892">N32.442570 W110.788920</a>)
   US/Arizona. Measurers T. Beuden, V. F. Carvajal, D. Fay, J. B. Fazekas, D.
   C. <a href="https://ssd.jpl.nasa.gov/tools/sbdb_lookup.html#/?sstr=22963&amp;view=OPD">Fuls</a>, A. R. <a href="https://ssd.jpl.nasa.gov/tools/sbdb_lookup.html#/?sstr=14220&amp;view=OPD">Gibbs</a>, A. D. <a href="https://ssd.jpl.nasa.gov/tools/sbdb_lookup.html#/?sstr=18871&amp;view=OPD">Grauer</a>, H. <a href="https://www.lpl.arizona.edu/research-scientists/hannes-gr%C3%B6ller">Gr&ouml;ller</a>, J. K. Hogan, R. A.
   <a href="https://ssd.jpl.nasa.gov/tools/sbdb_lookup.html#/?sstr=7392&amp;view=OPD">Kowalski</a>, S. M. <a href="https://ssd.jpl.nasa.gov/tools/sbdb_lookup.html#/?sstr=3690&amp;view=OPD">Larson</a>, G. J. <a href="https://catalina.lpl.arizona.edu/about/staff/greg-leonard">Leonard</a>, D. <a href="http://rankinstudio.com/">Rankin</a>, R. L. <a href="https://arxiv.org/find/all/1/all:+seaman_r/0/1/0/all/0/1">Seaman</a>, F. C.
   <a href="https://ssd.jpl.nasa.gov/tools/sbdb_lookup.html#/?sstr=17280&amp;view=OPD">Shelly</a>, K. W. <a href='http://www.skaw.sk/interview-with-kacper-wierzchos.html'>Wierzcho&#347;</a>. 1.0-m prime focus + CCD.
<a name="elements"></a>
<a href="https://www.projectpluto.com/mpec_xpl.htm#elems"><b>Orbital elements:  C4668V1</b></a>
   Perigee 2026 Apr 11.42133 +/- 0.634 TT = 10:06:43 (JD 2461141.92133)
Epoch 2026 Apr 10.0 TT = JDT 2461140.5                           Find_Orb
q217374.233 +/- 120138              (J2000 equator)
H   27.06 G 0.15                    Peri.  168.00400 +/- 4.9
                                    Node   358.08270 +/- 10
e   2.5823481 +/- 10.2              Incl.   42.71995 +/- 2.6
From 8 observations 2026 Apr. 10 (82.3 min); mean residual 1".55
# State vector (heliocentric equatorial J2000):
#   -0.943283347469  -0.309287088169  -0.133291156943 AU
#   +4.891090461044 -15.754106157684  -7.259974345273 mAU/day
# State vector relative to central body:
#   -0.000644143644   0.001615958986   0.001471470528 AU
#   -0.643551197478  -0.838734560866  -0.793951718076 mAU/day
# GEO score 20
# Elements written: 10 Apr 2026  8:34:59 (JD 2461140.857631)
# Full range of obs: 2026 Apr. 10 (82.3 min) (8 observations)
# Find_Orb ver: 2026 Mar 01
# Perturbers: 00000408 (Sun/Earth/Moon);  JPL DE-440
# Barbee-style encounter velocity: 1.6533 km/s
# Diameter 15.9 meters (assuming 10% albedo)
# Score: 0.731948
#  $Name=C4668V1  $Ty=2026  $Tm=03  $Td=04.899881  $MA=30.33378
#  $ecc=0.1202605  $Eqnx=2000.
#  $a=1.1122203  $Peri=139.78947  $Node=21.56057  $Incl=1.25999
#  $EpJD=2461140.500  $q=0.978464  $T=2461104.399882  $H=27.1
# Sigmas avail: 1
</pre> <!-- State vector (heliocentric equatorial J2000): -->
<!--   -0.943283347469  -0.309287088169  -0.133291156943 AU -->
<!--   +4.891090461044 -15.754106157684  -7.259974345273 mAU/day -->
<!-- State vector relative to central body: -->
<!--   -0.000644143644   0.001615958986   0.001471470528 AU -->
<!--   -0.643551197478  -0.838734560866  -0.793951718076 mAU/day -->
<!-- GEO score 20 -->
<!-- Elements written: 10 Apr 2026  8:34:59 (JD 2461140.857631) -->
<!-- Full range of obs: 2026 Apr. 10 (82.3 min) (8 observations) -->
<!-- Find_Orb ver: 2026 Mar 01 -->
<!-- Perturbers: 00000408 (Sun/Earth/Moon);  JPL DE-440 -->
<!-- Barbee-style encounter velocity: 1.6533 km/s -->
<!-- Diameter 15.9 meters (assuming 10% albedo) -->
<!-- Score: 0.731948 -->
<!--  $Name=C4668V1  $Ty=2026  $Tm=03  $Td=04.899881  $MA=30.33378 -->
<!--  $ecc=0.1202605  $Eqnx=2000. -->
<!--  $a=1.1122203  $Peri=139.78947  $Node=21.56057  $Incl=1.25999 -->
<!--  $EpJD=2461140.500  $q=0.978464  $T=2461104.399882  $H=27.1 -->
<!-- Sigmas avail: 1 -->
<pre><b><a name="residuals"></a><a href="https://www.projectpluto.com/mpec_xpl.htm#resids">Residuals in arcseconds:</a> </b>
<a name="r001"></a><a href="#o001">260410</a> <a href="#stn_703">703</a>  1.4-  1.4+    <a name="r004"></a><a href="#o004">260410</a> <a href="#stn_I52">I52</a>  .27+  .52-    <a name="r007"></a><a href="#o007">260410</a> <a href="#stn_I52">I52</a>  1.7-  .92+    
<a name="r002"></a><a href="#o002">260410</a> <a href="#stn_703">703</a>  .46-  .07+    <a name="r005"></a><a href="#o005">260410</a> <a href="#stn_I52">I52</a>  3.1-  1.5+    <a name="r008"></a><a href="#o008">260410</a> <a href="#stn_I52">I52</a>  2.1+  .77-    
<a name="r003"></a><a href="#o003">260410</a> <a href="#stn_703">703</a>  2.2+  1.7-    <a name="r006"></a><a href="#o006">260410</a> <a href="#stn_I52">I52</a>  2.0+  .90-    

<a name="eph"></a><a href="https://www.projectpluto.com/mpec_xpl.htm#ephems"><b>Ephemerides (geocentric):</b></a>
Date (UTC) HH:MM   RA             Dec           delta  r     elong  mag  "/min    PA  
---- -----------  ------------   ------------  ------ ------ -----  --- ------- ------
2026 04 10 08:34  08 14 41.345   +36 54 05.40  293815 1.0020  97.1 16.4  79.395 113.3 
2026 04 10 08:44  08 15 42.633   +36 48 48.04  292964 1.0021  97.3 16.4  79.859 113.5 
2026 04 10 08:54  08 16 44.135   +36 43 26.86  292115 1.0021  97.6 16.4  80.326 113.6 
2026 04 10 09:04  08 17 45.851   +36 38 01.81  291270 1.0021  97.8 16.4  80.795 113.8 
2026 04 10 09:14  08 18 47.779   +36 32 32.87  290427 1.0021  98.0 16.4  81.266 113.9 
2026 04 10 09:24  08 19 49.919   +36 27 00.01  289587 1.0021  98.2 16.4  81.741 114.1 
2026 04 10 09:34  08 20 52.270   +36 21 23.18  288751 1.0021  98.4 16.3  82.217 114.2 
2026 04 10 09:44  08 21 54.832   +36 15 42.37  287917 1.0021  98.7 16.3  82.696 114.4 
2026 04 10 09:54  08 22 57.603   +36 09 57.52  287086 1.0021  98.9 16.3  83.178 114.5 
2026 04 10 10:04  08 24 00.583   +36 04 08.61  286258 1.0021  99.1 16.3  83.662 114.7 
2026 04 10 10:14  08 25 03.771   +35 58 15.61  285433 1.0021  99.3 16.3  84.149 114.8 
2026 04 10 10:24  08 26 07.166   +35 52 18.48  284611 1.0021  99.6 16.3  84.638 115.0 
2026 04 10 10:34  08 27 10.767   +35 46 17.20  283792 1.0021  99.8 16.3  85.129 115.1 
2026 04 10 10:44  08 28 14.573   +35 40 11.71  282976 1.0022 100.0 16.2  85.623 115.3 
2026 04 10 10:54  08 29 18.584   +35 34 02.00  282163 1.0022 100.2 16.2  86.119 115.5 
2026 04 10 11:04  08 30 22.798   +35 27 48.03  281354 1.0022 100.5 16.2  86.618 115.6 
2026 04 10 11:14  08 31 27.214   +35 21 29.76  280548 1.0022 100.7 16.2  87.118 115.8 
2026 04 10 11:24  08 32 31.831   +35 15 07.17  279745 1.0022 100.9 16.2  87.622 115.9 
2026 04 10 11:34  08 33 36.649   +35 08 40.22  278945 1.0022 101.2 16.2  88.127 116.1 
2026 04 10 11:44  08 34 41.666   +35 02 08.88  278148 1.0022 101.4 16.2  88.635 116.2 
</pre>
<hr>
<p style="font-family: sans-serif; font-size: 0.9em;">
  <a href="https://www.projectpluto.com/neocp2/mpecs/C4668V1.htm" target="_blank" rel="noopener">Bill Gray&rsquo;s pseudo-MPEC for C4668V1 &rarr;</a><br>
  <a href="../index.html">&larr; back to NEOCP artsat catalog</a>
</p>
</body></html>
